[{"OBJECT_NAME":"STARLINK-35092","OBJECT_ID":"2025-189V","EPOCH":"2026-03-09T14:01:14.890368","MEAN_MOTION":15.30215946,"ECCENTRICITY":9.49e-5,"INCLINATION":53.1604,"RA_OF_ASC_NODE":207.0206,"ARG_OF_PERICENTER":87.1219,"MEAN_ANOMALY":272.989,"EPHEMERIS_TYPE":0,"CLASSIFICATION_TYPE":"U","NORAD_CAT_ID":65342,"ELEMENT_SET_NO":999,"REV_AT_EPOCH":3100,"BSTAR":0.0012608,"MEAN_MOTION_DOT":0.00037187,"MEAN_MOTION_DDOT":0},{"OBJECT_NAME":"BREEZE-M DEB","OBJECT_ID":"2006-006H","EPOCH":"2026-03-09T13:44:00.021408","MEAN_MOTION":5.99470803,"ECCENTRICITY":0.47352772,"INCLINATION":51.7174,"RA_OF_ASC_NODE":74.4409,"ARG_OF_PERICENTER":338.7779,"MEAN_ANOMALY":6.7787,"EPHEMERIS_TYPE":0,"CLASSIFICATION_TYPE":"U","NORAD_CAT_ID":32030,"ELEMENT_SET_NO":999,"REV_AT_EPOCH":38511,"BSTAR":0.0051888726,"MEAN_MOTION_DOT":0.00015811,"MEAN_MOTION_DDOT":0}]
